IONOSFERA-M 2           
1 61736U 24199B   26157.96051965  .00000052  00000+0  42672-4 0  9991
2 61736  98.7185  31.1509 0001441  48.1011 312.0289 14.22755623129371
PRSC-EO1                
1 62725U 25012A   26158.30185734  .00007408  00000+0  37120-3 0  9999
2 62725  97.4221 230.9547 0004261 297.9468  62.1334 15.17643721 76691
BIOMASS                 
1 63772U 25090A   26158.01069470  .00000791  00000+0  14792-3 0  9992
2 63772  98.0743 345.4754 0001364  89.7565 270.3796 14.67532939 59191
GOSAT-GW (IBUKI GW)     
1 64694U 25141A   26158.30383297  .00000868  00000+0  16147-3 0  9992
2 64694  98.0572  95.7817 0001429  84.1355 276.0012 14.67554182 50399
IONOSFERA-M 3           
1 64876U 25155A   26158.32100263  .00000070  00000+0  51453-4 0  9996
2 64876  98.6026 120.4747 0000420 178.9820 181.1358 14.21484837 45008
IONOSFERA-M 4           
1 64877U 25155B   26158.28547105  .00000079  00000+0  55872-4 0  9990
2 64877  98.6019 120.3575 0000714 115.0464 245.0788 14.21487029 44991
MICROCARB               
1 64899U 25156A   26157.47987538  .00000602  00000+0  10291-3 0  9990
2 64899  97.9831 234.8082 0015210 309.6025  50.3839 14.72314846 46396
CO3D 3                  
1 64900U 25156B   26157.98510174  .00005300  00000+0  24782-3 0  9997
2 64900  97.4326 236.8251 0001012 136.7258 223.4057 15.20197599 47984
CO3D 4                  
1 64901U 25156C   26157.98525131  .00000363  00000+0  19880-4 0  9995
2 64901  97.4332 236.8250 0000859  29.5377 330.5907 15.20204887 47983
CO3D 2                  
1 64902U 25156D   26157.95190907  .00002991  00000+0  14128-3 0  9990
2 64902  97.4324 236.6913 0001346 115.7835 244.3539 15.20191554 47976
CO3D 1                  
1 64903U 25156E   26157.95206302  .00005411  00000+0  25291-3 0  9991
2 64903  97.4323 236.6917 0001152 118.3426 241.7925 15.20202543 47971
PRSC-S1                 
1 65055U 25164A   26157.98759308  .00005723  00000+0  39343-3 0  9990
2 65055  41.1315 345.2525 0007623 284.2052  75.7915 15.06362936 46897
SENTINEL-6B             
1 66514U 25264A   26158.24826376 -.00000039  00000+0  95951-4 0  9996
2 66514  66.0384 155.8218 0008059 269.3489  90.6603 12.80929703 25893
CAS500-3                
1 66655U 25274F   26158.06324462  .00001324  00000+0  14905-3 0  9998
2 66655  97.7446  86.3448 0006218 136.7859 223.3847 14.88296689 28646
CSG-3                   
1 67304U 26001A   26158.27496132  .00000400  00000+0  56836-4 0  9990
2 67304  97.8887 342.0207 0001333  95.4728 264.6637 14.82162483 22997
PRSC-E03                
1 68835U 26092A   26158.24676082  .00002576  00000+0  17768-3 0  9997
2 68835  37.9995 148.2957 0005187 296.6668  63.3562 15.06621443  6456
CAS500-2                
1 69013U 26100AK  26157.68861826  .00007753  00000+0  35756-3 0  9994
2 69013  97.4080  55.7252 0011492  67.2449 293.0000 15.20464325  5218
