OBJECT_NAME,OBJECT_ID,EPOCH,MEAN_MOTION,ECCENTRICITY,INCLINATION,RA_OF_ASC_NODE,ARG_OF_PERICENTER,MEAN_ANOMALY,EPHEMERIS_TYPE,CLASSIFICATION_TYPE,NORAD_CAT_ID,ELEMENT_SET_NO,REV_AT_EPOCH,BSTAR,MEAN_MOTION_DOT,MEAN_MOTION_DDOT
IONOSFERA-M 2,2024-199B,2026-06-06T23:03:08.897760,14.22755623,.00014417,98.7185,31.1509,48.1011,312.0289,0,U,61736,999,12937,.42672224E-4,.52E-6,0
PRSC-EO1,2025-012A,2026-06-07T07:14:40.474176,15.17643721,.00042612,97.4221,230.9547,297.9468,62.1334,0,U,62725,999,7669,.37120241E-3,.7408E-4,0
BIOMASS,2025-090A,2026-06-07T00:15:24.022080,14.67532939,.0001364,98.0743,345.4754,89.7565,270.3796,0,U,63772,999,5919,.14791705E-3,.791E-5,0
GOSAT-GW (IBUKI GW),2025-141A,2026-06-07T07:17:31.168608,14.67554182,.00014296,98.0572,95.7817,84.1355,276.0012,0,U,64694,999,5039,.16147446E-3,.868E-5,0
IONOSFERA-M 3,2025-155A,2026-06-07T07:42:14.627232,14.21484837,.00004208,98.6026,120.4747,178.9820,181.1358,0,U,64876,999,4500,.5145263E-4,.7E-6,0
IONOSFERA-M 4,2025-155B,2026-06-07T06:51:04.698720,14.21487029,.00007147,98.6019,120.3575,115.0464,245.0788,0,U,64877,999,4499,.55871955E-4,.79E-6,0
MICROCARB,2025-156A,2026-06-06T11:31:01.232832,14.72314846,.00152104,97.9831,234.8082,309.6025,50.3839,0,U,64899,999,4639,.10291029E-3,.602E-5,0
CO3D 3,2025-156B,2026-06-06T23:38:32.790336,15.20197599,.00010124,97.4326,236.8251,136.7258,223.4057,0,U,64900,999,4798,.24782399E-3,.53E-4,0
CO3D 4,2025-156C,2026-06-06T23:38:45.713184,15.20204887,.00008593,97.4332,236.8250,29.5377,330.5907,0,U,64901,999,4798,.19879575E-4,.363E-5,0
CO3D 2,2025-156D,2026-06-06T22:50:44.943648,15.20191554,.00013461,97.4324,236.6913,115.7835,244.3539,0,U,64902,999,4797,.14127585E-3,.2991E-4,0
CO3D 1,2025-156E,2026-06-06T22:50:58.244928,15.20202543,.00011521,97.4323,236.6917,118.3426,241.7925,0,U,64903,999,4797,.25291018E-3,.5411E-4,0
PRSC-S1,2025-164A,2026-06-06T23:42:08.042112,15.06362936,.00076237,41.1315,345.2525,284.2052,75.7915,0,U,65055,999,4689,.39342575E-3,.5723E-4,0
SENTINEL-6B,2025-264A,2026-06-07T05:57:29.988864,12.80929703,.00080596,66.0384,155.8218,269.3489,90.6603,0,U,66514,999,2589,.95951378E-4,-.39E-6,0
CAS500-3,2025-274F,2026-06-07T01:31:04.335168,14.88296689,.00062176,97.7446,86.3448,136.7859,223.3847,0,U,66655,999,2864,.14905329E-3,.1324E-4,0
CSG-3,2026-001A,2026-06-07T06:35:56.658048,14.82162483,.0001333,97.8887,342.0207,95.4728,264.6637,0,U,67304,999,2299,.5683624E-4,.4E-5,0
PRSC-E03,2026-092A,2026-06-07T05:55:20.135712,15.06621443,.00051869,37.9995,148.2957,296.6668,63.3562,0,U,68835,999,645,.17767627E-3,.2576E-4,0
CAS500-2,2026-100AK,2026-06-06T16:31:36.618528,15.20464325,.00114921,97.4080,55.7252,67.2449,293.0000,0,U,69013,999,521,.35756481E-3,.7753E-4,0
